KUIPER-00095            
1 65134U 25171C   25252.42225711  .00028713  00000+0  82231-3 0  9994
2 65134  51.8755 265.3859 0004086 263.9621  96.0900 15.35692433  5692
KUIPER-00096            
1 65135U 25171D   25252.91668981  .00058055  00000+0  16311-2 0  9996
2 65135  51.8745 262.9453 0003834 245.3386 355.6388 15.35960463  5557
KUIPER-00097            
1 65136U 25171E   25252.91668981  .00056807  00000+0  16121-2 0  9999
2 65136  51.8750 263.0121 0004070 263.8190 305.2909 15.35656059  4775
KUIPER-00098            
1 65137U 25171F   25252.60593169  .00098166  00000+0  27038-2 0  9994
2 65137  51.8759 264.3717 0005150 210.6591 149.4095 15.36325583  5068
KUIPER-00099            
1 65138U 25171G   25252.41312885  .00031385  00000+0  88309-3 0  9997
2 65138  51.8763 265.3335 0004325 233.9667 126.0919 15.36197717  5686
KUIPER-00100            
1 65139U 25171H   25252.41677777  .00025273  00000+0  71974-3 0  9991
2 65139  51.8753 265.3492 0004217 243.5154 116.5400 15.35938266  5688
KUIPER-00102            
1 65140U 25171J   25252.42249556  .00023736  00000+0  68409-3 0  9995
2 65140  51.8751 265.3849 0003917 259.7987 100.2558 15.35602469  5680
KUIPER-00103            
1 65141U 25171K   25252.67906899  .00039802  00000+0  11261-2 0  9997
2 65141  51.8753 264.1048 0003750 243.8436 116.2164 15.35913144  5729
