<?xml version="1.0" encoding="UTF-8"?>
<ndm xmlns:xsi="http://www.w3.org/2001/XMLSchema-instance" xsi:noNamespaceSchemaLocation="https://sanaregistry.org/r/ndmxml_unqualified/ndmxml-2.0.0-master-2.0.xsd">
<omm id="CCSDS_OMM_VERS" version="2.0">
<header><CREATION_DATE/><ORIGINATOR/></header><body><segment><metadata><OBJECT_NAME>KUIPER-00095</OBJECT_NAME><OBJECT_ID>2025-171C</OBJECT_ID><CENTER_NAME>EARTH</CENTER_NAME><REF_FRAME>TEME</REF_FRAME><TIME_SYSTEM>UTC</TIME_SYSTEM><MEAN_ELEMENT_THEORY>SGP4</MEAN_ELEMENT_THEORY></metadata><data><meanElements><EPOCH>2025-09-09T10:08:03.014304</EPOCH><MEAN_MOTION>15.35692433</MEAN_MOTION><ECCENTRICITY>.0004086</ECCENTRICITY><INCLINATION>51.8755</INCLINATION><RA_OF_ASC_NODE>265.3859</RA_OF_ASC_NODE><ARG_OF_PERICENTER>263.9621</ARG_OF_PERICENTER><MEAN_ANOMALY>96.0900</MEAN_ANOMALY></meanElements><tleParameters><EPHEMERIS_TYPE>0</EPHEMERIS_TYPE><CLASSIFICATION_TYPE>U</CLASSIFICATION_TYPE><NORAD_CAT_ID>65134</NORAD_CAT_ID><ELEMENT_SET_NO>999</ELEMENT_SET_NO><REV_AT_EPOCH>569</REV_AT_EPOCH><BSTAR>.82231203E-3</BSTAR><MEAN_MOTION_DOT>.28713E-3</MEAN_MOTION_DOT><MEAN_MOTION_DDOT>0</MEAN_MOTION_DDOT></tleParameters></data></segment></body></omm>
<omm id="CCSDS_OMM_VERS" version="2.0">
<header><CREATION_DATE/><ORIGINATOR/></header><body><segment><metadata><OBJECT_NAME>KUIPER-00096</OBJECT_NAME><OBJECT_ID>2025-171D</OBJECT_ID><CENTER_NAME>EARTH</CENTER_NAME><REF_FRAME>TEME</REF_FRAME><TIME_SYSTEM>UTC</TIME_SYSTEM><MEAN_ELEMENT_THEORY>SGP4</MEAN_ELEMENT_THEORY></metadata><data><meanElements><EPOCH>2025-09-09T22:00:01.999584</EPOCH><MEAN_MOTION>15.35960463</MEAN_MOTION><ECCENTRICITY>.00038347</ECCENTRICITY><INCLINATION>51.8745</INCLINATION><RA_OF_ASC_NODE>262.9453</RA_OF_ASC_NODE><ARG_OF_PERICENTER>245.3386</ARG_OF_PERICENTER><MEAN_ANOMALY>355.6388</MEAN_ANOMALY></meanElements><tleParameters><EPHEMERIS_TYPE>0</EPHEMERIS_TYPE><CLASSIFICATION_TYPE>U</CLASSIFICATION_TYPE><NORAD_CAT_ID>65135</NORAD_CAT_ID><ELEMENT_SET_NO>999</ELEMENT_SET_NO><REV_AT_EPOCH>555</REV_AT_EPOCH><BSTAR>.1631135E-2</BSTAR><MEAN_MOTION_DOT>.58055E-3</MEAN_MOTION_DOT><MEAN_MOTION_DDOT>0</MEAN_MOTION_DDOT></tleParameters></data></segment></body></omm>
<omm id="CCSDS_OMM_VERS" version="2.0">
<header><CREATION_DATE/><ORIGINATOR/></header><body><segment><metadata><OBJECT_NAME>KUIPER-00097</OBJECT_NAME><OBJECT_ID>2025-171E</OBJECT_ID><CENTER_NAME>EARTH</CENTER_NAME><REF_FRAME>TEME</REF_FRAME><TIME_SYSTEM>UTC</TIME_SYSTEM><MEAN_ELEMENT_THEORY>SGP4</MEAN_ELEMENT_THEORY></metadata><data><meanElements><EPOCH>2025-09-09T22:00:01.999584</EPOCH><MEAN_MOTION>15.35656059</MEAN_MOTION><ECCENTRICITY>.00040709</ECCENTRICITY><INCLINATION>51.8750</INCLINATION><RA_OF_ASC_NODE>263.0121</RA_OF_ASC_NODE><ARG_OF_PERICENTER>263.8190</ARG_OF_PERICENTER><MEAN_ANOMALY>305.2909</MEAN_ANOMALY></meanElements><tleParameters><EPHEMERIS_TYPE>0</EPHEMERIS_TYPE><CLASSIFICATION_TYPE>U</CLASSIFICATION_TYPE><NORAD_CAT_ID>65136</NORAD_CAT_ID><ELEMENT_SET_NO>999</ELEMENT_SET_NO><REV_AT_EPOCH>477</REV_AT_EPOCH><BSTAR>.16121226E-2</BSTAR><MEAN_MOTION_DOT>.56807E-3</MEAN_MOTION_DOT><MEAN_MOTION_DDOT>0</MEAN_MOTION_DDOT></tleParameters></data></segment></body></omm>
<omm id="CCSDS_OMM_VERS" version="2.0">
<header><CREATION_DATE/><ORIGINATOR/></header><body><segment><metadata><OBJECT_NAME>KUIPER-00098</OBJECT_NAME><OBJECT_ID>2025-171F</OBJECT_ID><CENTER_NAME>EARTH</CENTER_NAME><REF_FRAME>TEME</REF_FRAME><TIME_SYSTEM>UTC</TIME_SYSTEM><MEAN_ELEMENT_THEORY>SGP4</MEAN_ELEMENT_THEORY></metadata><data><meanElements><EPOCH>2025-09-09T14:32:32.498016</EPOCH><MEAN_MOTION>15.36325583</MEAN_MOTION><ECCENTRICITY>.00051509</ECCENTRICITY><INCLINATION>51.8759</INCLINATION><RA_OF_ASC_NODE>264.3717</RA_OF_ASC_NODE><ARG_OF_PERICENTER>210.6591</ARG_OF_PERICENTER><MEAN_ANOMALY>149.4095</MEAN_ANOMALY></meanElements><tleParameters><EPHEMERIS_TYPE>0</EPHEMERIS_TYPE><CLASSIFICATION_TYPE>U</CLASSIFICATION_TYPE><NORAD_CAT_ID>65137</NORAD_CAT_ID><ELEMENT_SET_NO>999</ELEMENT_SET_NO><REV_AT_EPOCH>506</REV_AT_EPOCH><BSTAR>.27038109E-2</BSTAR><MEAN_MOTION_DOT>.98166E-3</MEAN_MOTION_DOT><MEAN_MOTION_DDOT>0</MEAN_MOTION_DDOT></tleParameters></data></segment></body></omm>
<omm id="CCSDS_OMM_VERS" version="2.0">
<header><CREATION_DATE/><ORIGINATOR/></header><body><segment><metadata><OBJECT_NAME>KUIPER-00099</OBJECT_NAME><OBJECT_ID>2025-171G</OBJECT_ID><CENTER_NAME>EARTH</CENTER_NAME><REF_FRAME>TEME</REF_FRAME><TIME_SYSTEM>UTC</TIME_SYSTEM><MEAN_ELEMENT_THEORY>SGP4</MEAN_ELEMENT_THEORY></metadata><data><meanElements><EPOCH>2025-09-09T09:54:54.332640</EPOCH><MEAN_MOTION>15.36197717</MEAN_MOTION><ECCENTRICITY>.00043254</ECCENTRICITY><INCLINATION>51.8763</INCLINATION><RA_OF_ASC_NODE>265.3335</RA_OF_ASC_NODE><ARG_OF_PERICENTER>233.9667</ARG_OF_PERICENTER><MEAN_ANOMALY>126.0919</MEAN_ANOMALY></meanElements><tleParameters><EPHEMERIS_TYPE>0</EPHEMERIS_TYPE><CLASSIFICATION_TYPE>U</CLASSIFICATION_TYPE><NORAD_CAT_ID>65138</NORAD_CAT_ID><ELEMENT_SET_NO>999</ELEMENT_SET_NO><REV_AT_EPOCH>568</REV_AT_EPOCH><BSTAR>.88308649E-3</BSTAR><MEAN_MOTION_DOT>.31385E-3</MEAN_MOTION_DOT><MEAN_MOTION_DDOT>0</MEAN_MOTION_DDOT></tleParameters></data></segment></body></omm>
<omm id="CCSDS_OMM_VERS" version="2.0">
<header><CREATION_DATE/><ORIGINATOR/></header><body><segment><metadata><OBJECT_NAME>KUIPER-00100</OBJECT_NAME><OBJECT_ID>2025-171H</OBJECT_ID><CENTER_NAME>EARTH</CENTER_NAME><REF_FRAME>TEME</REF_FRAME><TIME_SYSTEM>UTC</TIME_SYSTEM><MEAN_ELEMENT_THEORY>SGP4</MEAN_ELEMENT_THEORY></metadata><data><meanElements><EPOCH>2025-09-09T10:00:09.599328</EPOCH><MEAN_MOTION>15.35938266</MEAN_MOTION><ECCENTRICITY>.00042178</ECCENTRICITY><INCLINATION>51.8753</INCLINATION><RA_OF_ASC_NODE>265.3492</RA_OF_ASC_NODE><ARG_OF_PERICENTER>243.5154</ARG_OF_PERICENTER><MEAN_ANOMALY>116.5400</MEAN_ANOMALY></meanElements><tleParameters><EPHEMERIS_TYPE>0</EPHEMERIS_TYPE><CLASSIFICATION_TYPE>U</CLASSIFICATION_TYPE><NORAD_CAT_ID>65139</NORAD_CAT_ID><ELEMENT_SET_NO>999</ELEMENT_SET_NO><REV_AT_EPOCH>568</REV_AT_EPOCH><BSTAR>.71973577E-3</BSTAR><MEAN_MOTION_DOT>.25273E-3</MEAN_MOTION_DOT><MEAN_MOTION_DDOT>0</MEAN_MOTION_DDOT></tleParameters></data></segment></body></omm>
<omm id="CCSDS_OMM_VERS" version="2.0">
<header><CREATION_DATE/><ORIGINATOR/></header><body><segment><metadata><OBJECT_NAME>KUIPER-00102</OBJECT_NAME><OBJECT_ID>2025-171J</OBJECT_ID><CENTER_NAME>EARTH</CENTER_NAME><REF_FRAME>TEME</REF_FRAME><TIME_SYSTEM>UTC</TIME_SYSTEM><MEAN_ELEMENT_THEORY>SGP4</MEAN_ELEMENT_THEORY></metadata><data><meanElements><EPOCH>2025-09-09T10:08:23.616384</EPOCH><MEAN_MOTION>15.35602469</MEAN_MOTION><ECCENTRICITY>.00039173</ECCENTRICITY><INCLINATION>51.8751</INCLINATION><RA_OF_ASC_NODE>265.3849</RA_OF_ASC_NODE><ARG_OF_PERICENTER>259.7987</ARG_OF_PERICENTER><MEAN_ANOMALY>100.2558</MEAN_ANOMALY></meanElements><tleParameters><EPHEMERIS_TYPE>0</EPHEMERIS_TYPE><CLASSIFICATION_TYPE>U</CLASSIFICATION_TYPE><NORAD_CAT_ID>65140</NORAD_CAT_ID><ELEMENT_SET_NO>999</ELEMENT_SET_NO><REV_AT_EPOCH>568</REV_AT_EPOCH><BSTAR>.68408796E-3</BSTAR><MEAN_MOTION_DOT>.23736E-3</MEAN_MOTION_DOT><MEAN_MOTION_DDOT>0</MEAN_MOTION_DDOT></tleParameters></data></segment></body></omm>
<omm id="CCSDS_OMM_VERS" version="2.0">
<header><CREATION_DATE/><ORIGINATOR/></header><body><segment><metadata><OBJECT_NAME>KUIPER-00103</OBJECT_NAME><OBJECT_ID>2025-171K</OBJECT_ID><CENTER_NAME>EARTH</CENTER_NAME><REF_FRAME>TEME</REF_FRAME><TIME_SYSTEM>UTC</TIME_SYSTEM><MEAN_ELEMENT_THEORY>SGP4</MEAN_ELEMENT_THEORY></metadata><data><meanElements><EPOCH>2025-09-09T16:17:51.560736</EPOCH><MEAN_MOTION>15.35913144</MEAN_MOTION><ECCENTRICITY>.00037507</ECCENTRICITY><INCLINATION>51.8753</INCLINATION><RA_OF_ASC_NODE>264.1048</RA_OF_ASC_NODE><ARG_OF_PERICENTER>243.8436</ARG_OF_PERICENTER><MEAN_ANOMALY>116.2164</MEAN_ANOMALY></meanElements><tleParameters><EPHEMERIS_TYPE>0</EPHEMERIS_TYPE><CLASSIFICATION_TYPE>U</CLASSIFICATION_TYPE><NORAD_CAT_ID>65141</NORAD_CAT_ID><ELEMENT_SET_NO>999</ELEMENT_SET_NO><REV_AT_EPOCH>572</REV_AT_EPOCH><BSTAR>.11260901E-2</BSTAR><MEAN_MOTION_DOT>.39802E-3</MEAN_MOTION_DOT><MEAN_MOTION_DDOT>0</MEAN_MOTION_DDOT></tleParameters></data></segment></body></omm>

</ndm>
